TANAGER-1               
1 60507U 24149AR  26115.81610594  .00014624  00000+0  31950-3 0  9994
2 60507  97.3468 209.7998 0007597 130.0750 230.1165 15.44257878 94951
FLOCK 4BE-29            
1 60509U 24149AT  26116.50266009  .00023359  00000+0  54118-3 0  9997
2 60509  97.3806 201.6676 0004285 120.8489 239.3180 15.42429026 94446
FLOCK 4BE-2             
1 60511U 24149AV  26116.28321557  .00057796  00000+0  11168-2 0  9994
2 60511  97.3817 202.3191 0004807 122.4047 237.7668 15.47582305 94469
FLOCK 4BE-13            
1 60512U 24149AW  26115.75857887  .00014827  00000+0  36797-3 0  9990
2 60512  97.3719 199.6840 0005585 102.7225 257.4646 15.40437603 94292
FLOCK 4BE-27            
1 60513U 24149AX  26116.46543815  .00011422  00000+0  35445-3 0  9990
2 60513  97.3828 198.3284 0005554 121.2345 238.9442 15.33536653 94214
FLOCK 4BE-9             
1 60514U 24149AY  26116.49795084  .00019339  00000+0  49857-3 0  9998
2 60514  97.3790 200.3320 0004477 122.5470 237.6208 15.39221945 94367
FLOCK 4BE-6             
1 60516U 24149BA  26116.48821957  .00017103  00000+0  45688-3 0  9993
2 60516  97.3789 199.7727 0005220 121.0058 239.1700 15.38148754 94327
FLOCK 4BE-14            
1 60517U 24149BB  26115.73619638  .00016606  00000+0  42667-3 0  9993
2 60517  97.3695 199.1130 0006173 122.7844 237.3997 15.39348265 94255
FLOCK 4BE-1             
1 60518U 24149BC  26116.45397764  .00021900  00000+0  53443-3 0  9994
2 60518  97.3780 200.9334 0005738 121.1981 238.9828 15.40865188 94406
FLOCK 4BE-28            
1 60519U 24149BD  26116.47923924  .00022000  00000+0  49896-3 0  9999
2 60519  97.3746 201.5271 0005796 116.9387 243.2454 15.43070343 94466
FLOCK 4BE-35            
1 60558U 24149CU  26116.45095928  .00162677  00000+0  24520-2 0  9995
2 60558  97.3714 200.7255 0004249 153.7783 206.3687 15.54204981 94397
FLOCK 4BE-5             
1 60559U 24149CV  26115.76861609  .00015861  00000+0  41607-3 0  9994
2 60559  97.3841 199.3276 0004808 124.0729 236.0973 15.38728848 94211
FLOCK 4BE-12            
1 60560U 24149CW  26116.47337041  .00217560  00000+0  26367-2 0  9998
2 60560  97.3674 201.7564 0004529 170.2112 189.9234 15.59905233 94487
FLOCK 4BE-3             
1 60561U 24149CX  26115.80032295  .00019858  00000+0  50033-3 0  9996
2 60561  97.3697 199.2765 0005908 117.7140 242.4706 15.39911940 94272
FLOCK 4BE-19            
1 60563U 24149CZ  26115.80141901  .00020839  00000+0  48487-3 0  9994
2 60563  97.3738 200.5754 0005754 119.4862 240.6960 15.42315077 94346
FLOCK 4G-8              
1 62613U 25009E   26116.45707663  .00013860  00000+0  49830-3 0  9992
2 62613  97.4007 198.7193 0005647 131.5491 228.6234 15.28728577 71019
