[{"OBJECT_NAME":"TANAGER-1","OBJECT_ID":"2024-149AR","EPOCH":"2026-04-25T19:35:11.553216","MEAN_MOTION":15.44257878,"ECCENTRICITY":0.00075971,"INCLINATION":97.3468,"RA_OF_ASC_NODE":209.7998,"ARG_OF_PERICENTER":130.075,"MEAN_ANOMALY":230.1165,"EPHEMERIS_TYPE":0,"CLASSIFICATION_TYPE":"U","NORAD_CAT_ID":60507,"ELEMENT_SET_NO":999,"REV_AT_EPOCH":9495,"BSTAR":0.00031949582,"MEAN_MOTION_DOT":0.00014624,"MEAN_MOTION_DDOT":0},{"OBJECT_NAME":"FLOCK 4BE-29","OBJECT_ID":"2024-149AT","EPOCH":"2026-04-26T12:03:49.831776","MEAN_MOTION":15.42429026,"ECCENTRICITY":0.0004285,"INCLINATION":97.3806,"RA_OF_ASC_NODE":201.6676,"ARG_OF_PERICENTER":120.8489,"MEAN_ANOMALY":239.318,"EPHEMERIS_TYPE":0,"CLASSIFICATION_TYPE":"U","NORAD_CAT_ID":60509,"ELEMENT_SET_NO":999,"REV_AT_EPOCH":9444,"BSTAR":0.00054118,"MEAN_MOTION_DOT":0.00023359,"MEAN_MOTION_DDOT":0},{"OBJECT_NAME":"FLOCK 4BE-2","OBJECT_ID":"2024-149AV","EPOCH":"2026-04-26T06:47:49.825248","MEAN_MOTION":15.47582305,"ECCENTRICITY":0.0004807,"INCLINATION":97.3817,"RA_OF_ASC_NODE":202.3191,"ARG_OF_PERICENTER":122.4047,"MEAN_ANOMALY":237.7668,"EPHEMERIS_TYPE":0,"CLASSIFICATION_TYPE":"U","NORAD_CAT_ID":60511,"ELEMENT_SET_NO":999,"REV_AT_EPOCH":9446,"BSTAR":0.0011168,"MEAN_MOTION_DOT":0.00057796,"MEAN_MOTION_DDOT":0},{"OBJECT_NAME":"FLOCK 4BE-13","OBJECT_ID":"2024-149AW","EPOCH":"2026-04-25T18:12:21.214368","MEAN_MOTION":15.40437603,"ECCENTRICITY":0.0005585,"INCLINATION":97.3719,"RA_OF_ASC_NODE":199.684,"ARG_OF_PERICENTER":102.7225,"MEAN_ANOMALY":257.4646,"EPHEMERIS_TYPE":0,"CLASSIFICATION_TYPE":"U","NORAD_CAT_ID":60512,"ELEMENT_SET_NO":999,"REV_AT_EPOCH":9429,"BSTAR":0.00036797,"MEAN_MOTION_DOT":0.00014827,"MEAN_MOTION_DDOT":0},{"OBJECT_NAME":"FLOCK 4BE-27","OBJECT_ID":"2024-149AX","EPOCH":"2026-04-26T11:10:13.856160","MEAN_MOTION":15.33536653,"ECCENTRICITY":0.0005554,"INCLINATION":97.3828,"RA_OF_ASC_NODE":198.3284,"ARG_OF_PERICENTER":121.2345,"MEAN_ANOMALY":238.9442,"EPHEMERIS_TYPE":0,"CLASSIFICATION_TYPE":"U","NORAD_CAT_ID":60513,"ELEMENT_SET_NO":999,"REV_AT_EPOCH":9421,"BSTAR":0.00035445,"MEAN_MOTION_DOT":0.00011422,"MEAN_MOTION_DDOT":0},{"OBJECT_NAME":"FLOCK 4BE-9","OBJECT_ID":"2024-149AY","EPOCH":"2026-04-26T11:57:02.952576","MEAN_MOTION":15.39221945,"ECCENTRICITY":0.0004477,"INCLINATION":97.379,"RA_OF_ASC_NODE":200.332,"ARG_OF_PERICENTER":122.547,"MEAN_ANOMALY":237.6208,"EPHEMERIS_TYPE":0,"CLASSIFICATION_TYPE":"U","NORAD_CAT_ID":60514,"ELEMENT_SET_NO":999,"REV_AT_EPOCH":9436,"BSTAR":0.00049857,"MEAN_MOTION_DOT":0.00019339,"MEAN_MOTION_DDOT":0},{"OBJECT_NAME":"FLOCK 4BE-6","OBJECT_ID":"2024-149BA","EPOCH":"2026-04-26T11:43:02.170848","MEAN_MOTION":15.38148754,"ECCENTRICITY":0.000522,"INCLINATION":97.3789,"RA_OF_ASC_NODE":199.7727,"ARG_OF_PERICENTER":121.0058,"MEAN_ANOMALY":239.17,"EPHEMERIS_TYPE":0,"CLASSIFICATION_TYPE":"U","NORAD_CAT_ID":60516,"ELEMENT_SET_NO":999,"REV_AT_EPOCH":9432,"BSTAR":0.00045688,"MEAN_MOTION_DOT":0.00017103,"MEAN_MOTION_DDOT":0},{"OBJECT_NAME":"FLOCK 4BE-14","OBJECT_ID":"2024-149BB","EPOCH":"2026-04-25T17:40:07.367232","MEAN_MOTION":15.39348265,"ECCENTRICITY":0.00061732,"INCLINATION":97.3695,"RA_OF_ASC_NODE":199.113,"ARG_OF_PERICENTER":122.7844,"MEAN_ANOMALY":237.3997,"EPHEMERIS_TYPE":0,"CLASSIFICATION_TYPE":"U","NORAD_CAT_ID":60517,"ELEMENT_SET_NO":999,"REV_AT_EPOCH":9425,"BSTAR":0.00042667454,"MEAN_MOTION_DOT":0.00016606,"MEAN_MOTION_DDOT":0},{"OBJECT_NAME":"FLOCK 4BE-1","OBJECT_ID":"2024-149BC","EPOCH":"2026-04-26T10:53:43.668096","MEAN_MOTION":15.40865188,"ECCENTRICITY":0.0005738,"INCLINATION":97.378,"RA_OF_ASC_NODE":200.9334,"ARG_OF_PERICENTER":121.1981,"MEAN_ANOMALY":238.9828,"EPHEMERIS_TYPE":0,"CLASSIFICATION_TYPE":"U","NORAD_CAT_ID":60518,"ELEMENT_SET_NO":999,"REV_AT_EPOCH":9440,"BSTAR":0.00053443,"MEAN_MOTION_DOT":0.000219,"MEAN_MOTION_DDOT":0},{"OBJECT_NAME":"FLOCK 4BE-28","OBJECT_ID":"2024-149BD","EPOCH":"2026-04-26T11:30:06.270336","MEAN_MOTION":15.43070343,"ECCENTRICITY":0.0005796,"INCLINATION":97.3746,"RA_OF_ASC_NODE":201.5271,"ARG_OF_PERICENTER":116.9387,"MEAN_ANOMALY":243.2454,"EPHEMERIS_TYPE":0,"CLASSIFICATION_TYPE":"U","NORAD_CAT_ID":60519,"ELEMENT_SET_NO":999,"REV_AT_EPOCH":9446,"BSTAR":0.00049896,"MEAN_MOTION_DOT":0.00022,"MEAN_MOTION_DDOT":0},{"OBJECT_NAME":"FLOCK 4BE-35","OBJECT_ID":"2024-149CU","EPOCH":"2026-04-26T10:49:22.881792","MEAN_MOTION":15.54204981,"ECCENTRICITY":0.0004249,"INCLINATION":97.3714,"RA_OF_ASC_NODE":200.7255,"ARG_OF_PERICENTER":153.7783,"MEAN_ANOMALY":206.3687,"EPHEMERIS_TYPE":0,"CLASSIFICATION_TYPE":"U","NORAD_CAT_ID":60558,"ELEMENT_SET_NO":999,"REV_AT_EPOCH":9439,"BSTAR":0.002452,"MEAN_MOTION_DOT":0.00162677,"MEAN_MOTION_DDOT":0},{"OBJECT_NAME":"FLOCK 4BE-5","OBJECT_ID":"2024-149CV","EPOCH":"2026-04-25T18:26:48.430176","MEAN_MOTION":15.38728848,"ECCENTRICITY":0.00048085,"INCLINATION":97.3841,"RA_OF_ASC_NODE":199.3276,"ARG_OF_PERICENTER":124.0729,"MEAN_ANOMALY":236.0973,"EPHEMERIS_TYPE":0,"CLASSIFICATION_TYPE":"U","NORAD_CAT_ID":60559,"ELEMENT_SET_NO":999,"REV_AT_EPOCH":9421,"BSTAR":0.00041606857,"MEAN_MOTION_DOT":0.00015861,"MEAN_MOTION_DDOT":0},{"OBJECT_NAME":"FLOCK 4BE-12","OBJECT_ID":"2024-149CW","EPOCH":"2026-04-26T11:21:39.203424","MEAN_MOTION":15.59905233,"ECCENTRICITY":0.0004529,"INCLINATION":97.3674,"RA_OF_ASC_NODE":201.7564,"ARG_OF_PERICENTER":170.2112,"MEAN_ANOMALY":189.9234,"EPHEMERIS_TYPE":0,"CLASSIFICATION_TYPE":"U","NORAD_CAT_ID":60560,"ELEMENT_SET_NO":999,"REV_AT_EPOCH":9448,"BSTAR":0.0026367,"MEAN_MOTION_DOT":0.0021756,"MEAN_MOTION_DDOT":0},{"OBJECT_NAME":"FLOCK 4BE-3","OBJECT_ID":"2024-149CX","EPOCH":"2026-04-25T19:12:27.902880","MEAN_MOTION":15.3991194,"ECCENTRICITY":0.00059083,"INCLINATION":97.3697,"RA_OF_ASC_NODE":199.2765,"ARG_OF_PERICENTER":117.714,"MEAN_ANOMALY":242.4706,"EPHEMERIS_TYPE":0,"CLASSIFICATION_TYPE":"U","NORAD_CAT_ID":60561,"ELEMENT_SET_NO":999,"REV_AT_EPOCH":9427,"BSTAR":0.00050033378,"MEAN_MOTION_DOT":0.00019858,"MEAN_MOTION_DDOT":0},{"OBJECT_NAME":"FLOCK 4BE-19","OBJECT_ID":"2024-149CZ","EPOCH":"2026-04-25T19:14:02.602464","MEAN_MOTION":15.42315077,"ECCENTRICITY":0.00057549,"INCLINATION":97.3738,"RA_OF_ASC_NODE":200.5754,"ARG_OF_PERICENTER":119.4862,"MEAN_ANOMALY":240.696,"EPHEMERIS_TYPE":0,"CLASSIFICATION_TYPE":"U","NORAD_CAT_ID":60563,"ELEMENT_SET_NO":999,"REV_AT_EPOCH":9434,"BSTAR":0.00048486556,"MEAN_MOTION_DOT":0.00020839,"MEAN_MOTION_DDOT":0},{"OBJECT_NAME":"FLOCK 4G-8","OBJECT_ID":"2025-009E","EPOCH":"2026-04-26T10:58:11.420832","MEAN_MOTION":15.28728577,"ECCENTRICITY":0.0005647,"INCLINATION":97.4007,"RA_OF_ASC_NODE":198.7193,"ARG_OF_PERICENTER":131.5491,"MEAN_ANOMALY":228.6234,"EPHEMERIS_TYPE":0,"CLASSIFICATION_TYPE":"U","NORAD_CAT_ID":62613,"ELEMENT_SET_NO":999,"REV_AT_EPOCH":7101,"BSTAR":0.0004983,"MEAN_MOTION_DOT":0.0001386,"MEAN_MOTION_DDOT":0}]
